{"type": "FeatureCollection", "features": [ {"type": "Feature", "properties": {"norad_id": 66890, "name": "STARLINK-35885", "group": "last-30-days", "lat": -17.571132250464128, "lon": 10.625464723057696, "alt_km": 353.3734484364559, "timestamp": "2025-12-22T14:45:56.098627+00:00", "meta": {"OBJECT_NAME": "STARLINK-35885", "OBJECT_ID": "2025-283N", "EPOCH": "2025-12-22T06:00:02.000160", "MEAN_MOTION": 15.74657179, "ECCENTRICITY": 7.649e-05, "INCLINATION": 53.1577, "RA_OF_ASC_NODE": 26.1726, "ARG_OF_PERICENTER": 112.5017, "MEAN_ANOMALY": 314.9915, "EPHEMERIS_TYPE": 0, "CLASSIFICATION_TYPE": "U", "NORAD_CAT_ID": 66890, "ELEMENT_SET_NO": 999, "REV_AT_EPOCH": 395, "BSTAR": -0.014908679, "MEAN_MOTION_DOT": -0.01932742, "MEAN_MOTION_DDOT": 0}, "tle": {"line1": "1 66890U 25283N   25356.25002315 -.01932742  00000+0 -14909-1 0  9991", "line2": "2 66890  53.1577  26.1726 0000764 112.5017 314.9915 15.74657179  3958"}}, "geometry": {"type": "Point", "coordinates": [10.625464723057696, -17.571132250464128]}}, {"type": "Feature", "properties": {"norad_id": 66891, "name": "STARLINK-35855", "group": "last-30-days", "lat": -16.063397637420408, "lon": 11.888228294521559, "alt_km": 353.461841024372, "timestamp": "2025-12-22T14:45:56.098637+00:00", "meta": {"OBJECT_NAME": "STARLINK-35855", "OBJECT_ID": "2025-283P", "EPOCH": "2025-12-22T06:00:02.000160", "MEAN_MOTION": 15.74474843, "ECCENTRICITY": 0.00011179, "INCLINATION": 53.1579, "RA_OF_ASC_NODE": 26.1681, "ARG_OF_PERICENTER": 97.7659, "MEAN_ANOMALY": 331.8202, "EPHEMERIS_TYPE": 0, "CLASSIFICATION_TYPE": "U", "NORAD_CAT_ID": 66891, "ELEMENT_SET_NO": 999, "REV_AT_EPOCH": 395, "BSTAR": -0.013758096, "MEAN_MOTION_DOT": -0.01790273, "MEAN_MOTION_DDOT": 0}, "tle": {"line1": "1 66891U 25283P   25356.25002315 -.01790273  00000+0 -13758-1 0  9994", "line2": "2 66891  53.1579  26.1681 0001117  97.7659 331.8202 15.74474843  3952"}}, "geometry": {"type": "Point", "coordinates": [11.888228294521559, -16.063397637420408]}}, {"type": "Feature", "properties": {"norad_id": 66892, "name": "STARLINK-35883", "group": "last-30-days", "lat": -14.567850599650683, "lon": 13.115840440824112, "alt_km": 353.3049035845552, "timestamp": "2025-12-22T14:45:56.098647+00:00", "meta": {"OBJECT_NAME": "STARLINK-35883", "OBJECT_ID": "2025-283Q", "EPOCH": "2025-12-22T06:00:02.000160", "MEAN_MOTION": 15.74474144, "ECCENTRICITY": 0.00015612, "INCLINATION": 53.1581, "RA_OF_ASC_NODE": 26.1638, "ARG_OF_PERICENTER": 88.7573, "MEAN_ANOMALY": 342.7484, "EPHEMERIS_TYPE": 0, "CLASSIFICATION_TYPE": "U", "NORAD_CAT_ID": 66892, "ELEMENT_SET_NO": 999, "REV_AT_EPOCH": 389, "BSTAR": -0.013787185, "MEAN_MOTION_DOT": -0.0179389, "MEAN_MOTION_DDOT": 0}, "tle": {"line1": "1 66892U 25283Q   25356.25002315 -.01793890  00000+0 -13787-1 0  9995", "line2": "2 66892  53.1581  26.1638 0001561  88.7573 342.7484 15.74474144  3896"}}, "geometry": {"type": "Point", "coordinates": [13.115840440824112, -14.567850599650683]}}, {"type": "Feature", "properties": {"norad_id": 66893, "name": "STARLINK-36033", "group": "last-30-days", "lat": -13.057127198835563, "lon": 14.333867815749432, "alt_km": 352.7325095164315, "timestamp": "2025-12-22T14:45:56.098656+00:00", "meta": {"OBJECT_NAME": "STARLINK-36033", "OBJECT_ID": "2025-283R", "EPOCH": "2025-12-22T06:00:02.000160", "MEAN_MOTION": 15.74486599, "ECCENTRICITY": 0.00012814, "INCLINATION": 53.1581, "RA_OF_ASC_NODE": 26.1596, "ARG_OF_PERICENTER": 63.5211, "MEAN_ANOMALY": 9.8959, "EPHEMERIS_TYPE": 0, "CLASSIFICATION_TYPE": "U", "NORAD_CAT_ID": 66893, "ELEMENT_SET_NO": 999, "REV_AT_EPOCH": 395, "BSTAR": -0.013902674, "MEAN_MOTION_DOT": -0.01807655, "MEAN_MOTION_DDOT": 0}, "tle": {"line1": "1 66893U 25283R   25356.25002315 -.01807655  00000+0 -13903-1 0  9991", "line2": "2 66893  53.1581  26.1596 0001281  63.5211   9.8959 15.74486599  3951"}}, "geometry": {"type": "Point", "coordinates": [14.333867815749432, -13.057127198835563]}}, {"type": "Feature", "properties": {"norad_id": 66894, "name": "STARLINK-35718", "group": "last-30-days", "lat": -11.545772181581759, "lon": 15.533872387200535, "alt_km": 352.68739729233766, "timestamp": "2025-12-22T14:45:56.098666+00:00", "meta": {"OBJECT_NAME": "STARLINK-35718", "OBJECT_ID": "2025-283S", "EPOCH": "2025-12-22T06:00:02.000160", "MEAN_MOTION": 15.74485515, "ECCENTRICITY": 0.00013738, "INCLINATION": 53.1579, "RA_OF_ASC_NODE": 26.1563, "ARG_OF_PERICENTER": 74.0508, "MEAN_ANOMALY": 1.2842, "EPHEMERIS_TYPE": 0, "CLASSIFICATION_TYPE": "U", "NORAD_CAT_ID": 66894, "ELEMENT_SET_NO": 999, "REV_AT_EPOCH": 395, "BSTAR": -0.013902611, "MEAN_MOTION_DOT": -0.01807648, "MEAN_MOTION_DDOT": 0}, "tle": {"line1": "1 66894U 25283S   25356.25002315 -.01807648  00000+0 -13903-1 0  9994", "line2": "2 66894  53.1579  26.1563 0001373  74.0508   1.2842 15.74485515  3955"}}, "geometry": {"type": "Point", "coordinates": [15.533872387200535, -11.545772181581759]}}, {"type": "Feature", "properties": {"norad_id": 66895, "name": "STARLINK-35971", "group": "last-30-days", "lat": -8.496941656751618, "lon": 17.90382010184887, "alt_km": 352.09150650238917, "timestamp": "2025-12-22T14:45:56.098676+00:00", "meta": {"OBJECT_NAME": "STARLINK-35971", "OBJECT_ID": "2025-283T", "EPOCH": "2025-12-22T06:00:02.000160", "MEAN_MOTION": 15.74554902, "ECCENTRICITY": 0.00016023, "INCLINATION": 53.158, "RA_OF_ASC_NODE": 26.1471, "ARG_OF_PERICENTER": 56.0286, "MEAN_ANOMALY": 23.1322, "EPHEMERIS_TYPE": 0, "CLASSIFICATION_TYPE": "U", "NORAD_CAT_ID": 66895, "ELEMENT_SET_NO": 999, "REV_AT_EPOCH": 395, "BSTAR": -0.014878417, "MEAN_MOTION_DOT": -0.01922647, "MEAN_MOTION_DDOT": 0}, "tle": {"line1": "1 66895U 25283T   25356.25002315 -.01922647  00000+0 -14878-1 0  9994", "line2": "2 66895  53.1580  26.1471 0001602  56.0286  23.1322 15.74554902  3957"}}, "geometry": {"type": "Point", "coordinates": [17.90382010184887, -8.496941656751618]}}, {"type": "Feature", "properties": {"norad_id": 66896, "name": "STARLINK-35791", "group": "last-30-days", "lat": -10.024861314587444, "lon": 16.723133435518665, "alt_km": 352.3324930516965, "timestamp": "2025-12-22T14:45:56.098688+00:00", "meta": {"OBJECT_NAME": "STARLINK-35791", "OBJECT_ID": "2025-283U", "EPOCH": "2025-12-22T06:00:02.000160", "MEAN_MOTION": 15.7448102, "ECCENTRICITY": 8.584e-05, "INCLINATION": 53.1581, "RA_OF_ASC_NODE": 26.1514, "ARG_OF_PERICENTER": 70.494, "MEAN_ANOMALY": 6.7591, "EPHEMERIS_TYPE": 0, "CLASSIFICATION_TYPE": "U", "NORAD_CAT_ID": 66896, "ELEMENT_SET_NO": 999, "REV_AT_EPOCH": 395, "BSTAR": -0.013862673, "MEAN_MOTION_DOT": -0.01802394, "MEAN_MOTION_DDOT": 0}, "tle": {"line1": "1 66896U 25283U   25356.25002315 -.01802394  00000+0 -13863-1 0  9994", "line2": "2 66896  53.1581  26.1514 0000858  70.4940   6.7591 15.74481020  3951"}}, "geometry": {"type": "Point", "coordinates": [16.723133435518665, -10.024861314587444]}}, {"type": "Feature", "properties": {"norad_id": 66897, "name": "STARLINK-36079", "group": "last-30-days", "lat": -6.982480533704817, "lon": 19.06291649848935, "alt_km": 352.0039800240165, "timestamp": "2025-12-22T14:45:56.098698+00:00", "meta": {"OBJECT_NAME": "STARLINK-36079", "OBJECT_ID": "2025-283V", "EPOCH": "2025-12-22T06:00:02.000160", "MEAN_MOTION": 15.74461697, "ECCENTRICITY": 0.00016471, "INCLINATION": 53.1579, "RA_OF_ASC_NODE": 26.1435, "ARG_OF_PERICENTER": 69.4581, "MEAN_ANOMALY": 11.6484, "EPHEMERIS_TYPE": 0, "CLASSIFICATION_TYPE": "U", "NORAD_CAT_ID": 66897, "ELEMENT_SET_NO": 999, "REV_AT_EPOCH": 395, "BSTAR": -0.013743896, "MEAN_MOTION_DOT": -0.01788176, "MEAN_MOTION_DDOT": 0}, "tle": {"line1": "1 66897U 25283V   25356.25002315 -.01788176  00000+0 -13744-1 0  9994", "line2": "2 66897  53.1579  26.1435 0001647  69.4581  11.6484 15.74461697  3951"}}, "geometry": {"type": "Point", "coordinates": [19.06291649848935, -6.982480533704817]}}, {"type": "Feature", "properties": {"norad_id": 66898, "name": "STARLINK-36065", "group": "last-30-days", "lat": -5.453792948602002, "lon": 20.22199708194841, "alt_km": 351.87968230124534, "timestamp": "2025-12-22T14:45:56.098712+00:00", "meta": {"OBJECT_NAME": "STARLINK-36065", "OBJECT_ID": "2025-283W", "EPOCH": "2025-12-22T06:00:02.000160", "MEAN_MOTION": 15.74484172, "ECCENTRICITY": 0.00014187, "INCLINATION": 53.1581, "RA_OF_ASC_NODE": 26.1388, "ARG_OF_PERICENTER": 75.2875, "MEAN_ANOMALY": 7.7134, "EPHEMERIS_TYPE": 0, "CLASSIFICATION_TYPE": "U", "NORAD_CAT_ID": 66898, "ELEMENT_SET_NO": 999, "REV_AT_EPOCH": 395, "BSTAR": -0.013866079, "MEAN_MOTION_DOT": -0.0180344, "MEAN_MOTION_DDOT": 0}, "tle": {"line1": "1 66898U 25283W   25356.25002315 -.01803440  00000+0 -13866-1 0  9992", "line2": "2 66898  53.1581  26.1388 0001418  75.2875   7.7134 15.74484172  3950"}}, "geometry": {"type": "Point", "coordinates": [20.22199708194841, -5.453792948602002]}}, {"type": "Feature", "properties": {"norad_id": 66899, "name": "STARLINK-36064", "group": "last-30-days", "lat": -3.9238974436583316, "lon": 21.375402073665, "alt_km": 351.52902008930505, "timestamp": "2025-12-22T14:45:56.098724+00:00", "meta": {"OBJECT_NAME": "STARLINK-36064", "OBJECT_ID": "2025-283X", "EPOCH": "2025-12-22T06:00:02.000160", "MEAN_MOTION": 15.74462794, "ECCENTRICITY": 0.00012781, "INCLINATION": 53.158, "RA_OF_ASC_NODE": 26.1351, "ARG_OF_PERICENTER": 63.0588, "MEAN_ANOMALY": 21.8719, "EPHEMERIS_TYPE": 0, "CLASSIFICATION_TYPE": "U", "NORAD_CAT_ID": 66899, "ELEMENT_SET_NO": 999, "REV_AT_EPOCH": 389, "BSTAR": -0.0137054, "MEAN_MOTION_DOT": -0.01783569, "MEAN_MOTION_DDOT": 0}, "tle": {"line1": "1 66899U 25283X   25356.25002315 -.01783569  00000+0 -13705-1 0  9994", "line2": "2 66899  53.1580  26.1351 0001278  63.0588  21.8719 15.74462794  3895"}}, "geometry": {"type": "Point", "coordinates": [21.375402073665, -3.9238974436583316]}}]}